STARLINK-36357          
1 67963U 26038C   26082.50003471  .00079530  00000+0  14517-2 0  9991
2 67963  97.2856  93.3097 0001117 120.1495  69.3496 15.49139773  5420
STARLINK-36349          
1 67964U 26038D   26082.50003471  .00076634  00000+0  13992-2 0  9990
2 67964  97.2856  93.3061 0000992 111.7042  70.6248 15.49145904  5429
STARLINK-36806          
1 67965U 26038E   26082.50003471 -.02222641  00000+0 -53064-1 0  9999
2 67965  97.2857  93.3570 0002100 119.3172 185.2629 15.45288243  5423
STARLINK-36820          
1 67966U 26038F   26082.50003471 -.02218765  00000+0 -52782-1 0  9998
2 67966  97.2853  93.3645 0001325 126.0415 191.7740 15.45393964  5429
STARLINK-36819          
1 67967U 26038G   26082.44503558  .00085094  00000+0  15447-2 0  9994
2 67967  97.2850  93.1497 0001330  56.3935 303.7443 15.49275569  5337
STARLINK-36812          
1 67968U 26038H   26082.50003471 -.02213765  00000+0 -50832-1 0  9999
2 67968  97.2857  93.3747 0001568 117.6032 221.9259 15.46407928  5426
STARLINK-36709          
1 67969U 26038J   26082.50003471 -.02249271  00000+0 -48519-1 0  9990
2 67969  97.2856  93.3788 0001176 108.7284 242.8660 15.48265983  5429
STARLINK-36319          
1 67970U 26038K   26082.50003471 -.02413520  00000+0 -49673-1 0  9994
2 67970  97.2853  93.3314 0001626 139.1011 107.8075 15.49258642  5390
STARLINK-36710          
1 67971U 26038L   26082.50003471 -.02432739  00000+0 -53947-1 0  9997
2 67971  97.2855  93.3882 0001496  71.9085 305.8317 15.47159037  5421
STARLINK-36894          
1 67972U 26038M   26082.50003471 -.02274365  00000+0 -50756-1 0  9992
2 67972  97.2854  93.3953 0001414 105.9090 285.0625 15.47336092  5423
STARLINK-36900          
1 67973U 26038N   26082.29110038  .00110079  00000+0  19934-2 0  9998
2 67973  97.2855  93.0536 0001944 104.2444 255.9023 15.49247532  5310
STARLINK-36901          
1 67974U 26038P   26082.50003471 -.02217990  00000+0 -48252-1 0  9993
2 67974  97.2863  93.3992 0001384  64.9836 334.4340 15.47967443  5429
